OBJECT_NAME,OBJECT_ID,EPOCH,MEAN_MOTION,ECCENTRICITY,INCLINATION,RA_OF_ASC_NODE,ARG_OF_PERICENTER,MEAN_ANOMALY,EPHEMERIS_TYPE,CLASSIFICATION_TYPE,NORAD_CAT_ID,ELEMENT_SET_NO,REV_AT_EPOCH,BSTAR,MEAN_MOTION_DOT,MEAN_MOTION_DDOT
HAWK-5A,2022-057AB,2026-07-20T16:48:51.145344,15.52446178,.00029439,97.6637,2.7481,311.2030,48.8967,0,U,52757,999,23154,.19411255E-3,.11764E-3,0
HAWK-6B,2023-011A,2026-07-20T22:50:27.121056,15.23186358,.0004596,40.4981,155.0908,269.6243,90.4040,0,U,55324,999,19299,.13769064E-3,.3129E-4,0
HAWK-6C,2023-011C,2026-07-20T22:49:32.438496,15.23185777,.00050971,40.4969,151.9297,264.2933,95.7295,0,U,55326,999,19300,.13170106E-3,.2985E-4,0
HAWK-6A,2023-011D,2026-07-20T22:49:35.676768,15.23186278,.00047744,40.4979,153.5573,261.3875,98.6394,0,U,55327,999,19300,.13507315E-3,.3066E-4,0
HAWK-7A,2023-054P,2026-07-20T12:27:43.085088,15.27665267,.0001005,97.2653,88.0088,294.4886,65.6248,0,U,56191,999,18211,.12214E-3,.323E-4,0
HAWK-7B,2023-054R,2026-07-20T20:19:13.997856,15.27670128,.00006785,97.2678,86.6037,2.8812,357.2431,0,U,56193,999,18216,.1301893E-3,.3448E-4,0
HAWK-7C,2023-054Y,2026-07-20T20:19:02.885088,15.27669625,.00003766,97.2656,87.3617,308.1724,51.9482,0,U,56200,999,18216,.13939122E-3,.3697E-4,0
